FLOCK 4X-13             
1 51028U 22002AW  23185.66541687  .00010069  00000+0  36343-3 0  9991
2 51028  97.4358 254.0135 0010496 160.1941 199.9708 15.28646631 81516
FLOCK 4X-39             
1 51029U 22002AX  23185.98010641  .00011301  00000+0  40442-3 0  9993
2 51029  97.4357 254.3630 0010016 159.4757 200.6887 15.28901364 81563
FLOCK 4X-17             
1 51035U 22002BD  23186.44323899  .00009089  00000+0  32816-3 0  9990
2 51035  97.4395 254.9227 0007204 164.4106 195.7357 15.28694517 81621
FLOCK 4X-10             
1 51037U 22002BF  23186.16204155  .00009710  00000+0  35023-3 0  9998
2 51037  97.4408 254.7891 0009284 165.8719 194.2782 15.28692240 81579
FLOCK 4X-36             
1 51039U 22002BH  23186.42830845  .00009575  00000+0  34592-3 0  9999
2 51039  97.4396 255.0191 0008271 164.4469 195.7026 15.28653642 81622
FLOCK 4X-21             
1 51040U 22002BJ  23185.64984025  .00014242  00000+0  47664-3 0  9995
2 51040  97.4368 254.1960 0008856 156.4317 203.7332 15.31037376 81511
FLOCK 4X-31             
1 51041U 22002BK  23186.43322975  .00008311  00000+0  30060-3 0  9996
2 51041  97.4346 254.6123 0006698 157.6653 202.4880 15.28668540 81627
FLOCK 4X-34             
1 51042U 22002BL  23185.65710963  .00011555  00000+0  41732-3 0  9990
2 51042  97.4412 254.2245 0007595 170.0167 190.1225 15.28616460 81506
FLOCK 4X-6              
1 51043U 22002BM  23186.43090655  .00009870  00000+0  35452-3 0  9996
2 51043  97.4390 254.9012 0007575 163.6747 196.4738 15.28838888 81622
FLOCK 4X-28             
1 51045U 22002BP  23185.68556108  .00015405  00000+0  50588-3 0  9992
2 51045  97.4346 254.1421 0009360 143.1796 217.0090 15.31626487 81526
FLOCK 4X-19             
1 51046U 22002BQ  23185.91703373  .00020126  00000+0  54031-3 0  9990
2 51046  97.4362 255.4434 0006446 150.9566 209.2038 15.37955450 81612
FLOCK 4X-9              
1 51047U 22002BR  23185.97789195  .00011352  00000+0  40923-3 0  9999
2 51047  97.4399 254.5289 0008049 170.1205 190.0194 15.28678539 81559
FLOCK 4X-35             
1 51048U 22002BS  23186.43372671  .00009869  00000+0  35642-3 0  9991
2 51048  97.4327 254.5155 0007926 159.1409 201.0156 15.28654924 81620
FLOCK 4X-11             
1 51049U 22002BT  23186.43247105  .00011873  00000+0  39803-3 0  9996
2 51049  97.4336 254.7495 0008490 147.6743 212.5020 15.31029342 81632
FLOCK 4X-40             
1 51052U 22002BW  23186.44259250  .00009799  00000+0  35362-3 0  9995
2 51052  97.4344 254.5812 0007091 168.3704 191.7701 15.28689883 81620
FLOCK 4X-24             
1 51056U 22002CA  23186.44422564  .00009677  00000+0  34822-3 0  9994
2 51056  97.4346 254.6288 0007306 158.6694 201.4852 15.28786254 81629
FLOCK 4X-4              
1 51064U 22002CJ  23185.70077067  .00011655  00000+0  41773-3 0  9997
2 51064  97.4357 253.9639 0008055 161.3551 198.7985 15.28860371 81513
FLOCK 4X-7              
1 51065U 22002CK  23185.64544085  .00010690  00000+0  38603-3 0  9996
2 51065  97.4380 254.0880 0007862 168.8002 191.3414 15.28639404 81504
FLOCK 4X-14             
1 51066U 22002CL  23186.42725495  .00010164  00000+0  36570-3 0  9997
2 51066  97.4413 255.1104 0008133 167.4138 192.7306 15.28769023 81629
FLOCK 4Y-24             
1 55020U 23001M   23185.93119247  .00006238  00000+0  30414-3 0  9996
2 55020  97.4755 245.5029 0009235 315.4322  44.6169 15.18645317 27771
FLOCK 4Y-32             
1 55021U 23001N   23186.05807431  .00007670  00000+0  37216-3 0  9998
2 55021  97.4749 245.6323 0009288 309.6010  50.4403 15.18733602 27793
FLOCK 4Y-22             
1 55022U 23001P   23186.05740864  .00006464  00000+0  31479-3 0  9990
2 55022  97.4758 245.6460 0009463 303.8585  56.1748 15.18670384 27796
FLOCK 4Y-18             
1 55023U 23001Q   23186.05738924  .00007710  00000+0  37409-3 0  9999
2 55023  97.4783 245.7157 0009172 311.0784  48.9657 15.18733558 27799
FLOCK 4Y-14             
1 55024U 23001R   23185.98566552  .00006427  00000+0  31306-3 0  9991
2 55024  97.4776 245.6359 0009529 315.8067  44.2405 15.18663552 27782
FLOCK 4Y-30             
1 55025U 23001S   23186.04850265  .00006322  00000+0  30792-3 0  9999
2 55025  97.4789 245.7320 0009449 314.3186  45.7273 15.18671757 27799
FLOCK 4Y-19             
1 55026U 23001T   23186.38330145  .00006732  00000+0  32731-3 0  9997
2 55026  97.4748 245.9561 0009764 303.6640  56.3663 15.18706699 27841
FLOCK 4Y-25             
1 55027U 23001U   23186.44264561  .00006135  00000+0  29884-3 0  9995
2 55027  97.4741 246.0165 0009237 309.6371  50.4047 15.18684122 27857
FLOCK 4Y-5              
1 55028U 23001V   23186.43454643  .00006202  00000+0  30151-3 0  9991
2 55028  97.4759 246.0636 0009906 302.0791  57.9480 15.18742283 27852
FLOCK 4Y-10             
1 55029U 23001W   23185.91380792  .00007168  00000+0  34818-3 0  9993
2 55029  97.4783 245.5971 0009396 309.1512  50.8887 15.18718275 27776
FLOCK 4Y-29             
1 55030U 23001X   23186.04462813  .00007102  00000+0  34532-3 0  9996
2 55030  97.4744 245.6307 0009795 308.9377  51.0984 15.18682610 27794
FLOCK 4Y-17             
1 55031U 23001Y   23186.12045894  .00005866  00000+0  28630-3 0  9999
2 55031  97.4789 245.7955 0009628 311.6154  48.4255 15.18632852 27809
FLOCK 4Y-7              
1 55032U 23001Z   23185.89907110  .00005139  00000+0  25016-3 0  9999
2 55032  97.4756 245.5424 0010197 304.6204  55.4068 15.18775151 27770
FLOCK 4Y-28             
1 55033U 23001AA  23186.41519963  .00015335  00000+0  68442-3 0  9993
2 55033  97.4721 246.1722 0007818 307.6938  52.3589 15.21443054 27866
FLOCK 4Y-3              
1 55035U 23001AC  23186.41982397  .00005590  00000+0  27232-3 0  9994
2 55035  97.4748 246.0580 0012644 308.9190  51.0916 15.18687187 27857
FLOCK 4Y-1              
1 55039U 23001AG  23186.41871702  .00007751  00000+0  37206-3 0  9998
2 55039  97.4749 246.0527 0009916 302.9902  57.0378 15.19100586 27858
FLOCK 4Y-16             
1 55040U 23001AH  23185.43962591  .00006809  00000+0  33065-3 0  9990
2 55040  97.4797 245.1883 0010011 315.9313  44.1123 15.18744193 27702
FLOCK 4Y-33             
1 55042U 23001AK  23185.70770510  .00006763  00000+0  32858-3 0  9998
2 55042  97.4742 245.3025 0010133 308.0750  51.9569 15.18726718 27744
FLOCK 4Y-11             
1 55043U 23001AL  23185.92932718  .00006175  00000+0  30641-3 0  9998
2 55043  97.4790 245.5895 0009810 306.7676  53.2657 15.18025887 27772
FLOCK 4Y-4              
1 55055U 23001AY  23186.42182916  .00005427  00000+0  26359-3 0  9994
2 55055  97.4767 246.0977 0011790 306.7394  53.2756 15.18812188 27850
FLOCK 4Y-35             
1 55057U 23001BA  23185.69879055  .00006770  00000+0  32920-3 0  9994
2 55057  97.4781 245.4173 0011034 315.8293  44.2060 15.18690456 27747
FLOCK 4Y-20             
1 55063U 23001BG  23185.95631848  .00006048  00000+0  29459-3 0  9997
2 55063  97.4797 245.7255 0012746 314.9402  45.0797 15.18657130 27780
FLOCK 4Y-12             
1 55065U 23001BJ  23185.96126073  .00006388  00000+0  31074-3 0  9992
2 55065  97.4806 245.7401 0012281 313.9254  46.0965 15.18688555 27787
FLOCK 4Y-6              
1 55066U 23001BK  23185.69460290  .00006560  00000+0  31917-3 0  9993
2 55066  97.4794 245.4460 0012364 316.7588  43.2675 15.18667777 27745
FLOCK 4Y-15             
1 55068U 23001BM  23186.40857410  .00005457  00000+0  26581-3 0  9994
2 55068  97.4742 246.0585 0013072 307.2164  52.7877 15.18696074 27850
FLOCK 4Y-9              
1 55069U 23001BN  23186.41358521  .00005441  00000+0  26529-3 0  9990
2 55069  97.4779 246.1453 0012524 316.5609  43.4638 15.18673983 27850
FLOCK 4Y-26             
1 55070U 23001BP  23185.75110536  .00006403  00000+0  31108-3 0  9998
2 55070  97.4752 245.4106 0012850 307.6626  52.3442 15.18722675 27756
FLOCK 4Y-8              
1 55071U 23001BQ  23186.41209983  .00007393  00000+0  35700-3 0  9999
2 55071  97.4756 246.0851 0013081 309.6781  50.3299 15.18879618 27855
FLOCK 4Y-2              
1 55074U 23001BT  23185.54862929  .00005938  00000+0  29038-3 0  9990
2 55074  97.4787 245.3210 0012924 316.9224  43.0998 15.18523900 27722
FLOCK 4Y-31             
1 55075U 23001BU  23186.00757478  .00014127  00000+0  67732-3 0  9998
2 55075  97.4747 245.6884 0013235 305.6603  54.3399 15.18940329 27796
FLOCK 4Y-21             
1 55077U 23001BW  23186.14167875  .00005586  00000+0  27294-3 0  9999
2 55077  97.4791 245.9214 0012936 313.1735  46.8417 15.18582849 27813
FLOCK 4Y-36             
1 55078U 23001BX  23186.00948313  .00006611  00000+0  32090-3 0  9999
2 55078  97.4765 245.7228 0012970 313.4621  46.5533 15.18740048 27793
FLOCK 4Y-13             
1 55079U 23001BY  23185.94863658  .00006050  00000+0  29505-3 0  9994
2 55079  97.4783 245.6964 0013422 313.1851  46.8261 15.18605928 27782
FLOCK 4Y-23             
1 55080U 23001BZ  23185.73728957  .00005885  00000+0  28663-3 0  9994
2 55080  97.4756 245.4536 0013410 309.7912  50.2141 15.18665210 27756
FLOCK 4Y-34             
1 55082U 23001CB  23185.40387035  .00005682  00000+0  27662-3 0  9991
2 55082  97.4765 245.1539 0013173 310.7295  49.2795 15.18696889 27704
FLOCK 4Y-27             
1 55083U 23001CC  23186.45082023  .00006473  00000+0  31160-3 0  9994
2 55083  97.4762 246.1976 0013542 308.4368  51.5650 15.19032328 27869
